{"type": "FeatureCollection", "features": [ {"type": "Feature", "properties": {"norad_id": 60453, "name": "LEGION 4", "group": "resource", "lat": 44.57249075359673, "lon": 138.6105477563669, "alt_km": 516.8152626568562, "timestamp": "2025-12-13T08:49:15.351497+00:00", "meta": {"OBJECT_NAME": "LEGION 4", "OBJECT_ID": "2024-146B", "EPOCH": "2025-12-12T21:19:22.281312", "MEAN_MOTION": 15.15827457, "ECCENTRICITY": 0.00094836, "INCLINATION": 45.0391, "RA_OF_ASC_NODE": 41.0864, "ARG_OF_PERICENTER": 311.9322, "MEAN_ANOMALY": 48.0748, "EPHEMERIS_TYPE": 0, "CLASSIFICATION_TYPE": "U", "NORAD_CAT_ID": 60453, "ELEMENT_SET_NO": 999, "REV_AT_EPOCH": 7260, "BSTAR": 0.00041716988, "MEAN_MOTION_DOT": 7.86e-05, "MEAN_MOTION_DDOT": 0}, "tle": {"line1": "1 60453U 24146B   25346.88845233  .00007860  00000+0  41717-3 0  9999", "line2": "2 60453  45.0391  41.0864 0009483 311.9322  48.0748 15.15827457 72601"}}, "geometry": {"type": "Point", "coordinates": [138.6105477563669, 44.57249075359673]}}, {"type": "Feature", "properties": {"norad_id": 60989, "name": "SENTINEL-2C", "group": "resource", "lat": -4.63267222648722, "lon": 60.54097818566576, "alt_km": 792.6766673765051, "timestamp": "2025-12-13T08:49:15.351508+00:00", "meta": {"OBJECT_NAME": "SENTINEL-2C", "OBJECT_ID": "2024-157A", "EPOCH": "2025-12-12T22:46:22.228032", "MEAN_MOTION": 14.30817628, "ECCENTRICITY": 0.00011983, "INCLINATION": 98.5683, "RA_OF_ASC_NODE": 59.4284, "ARG_OF_PERICENTER": 97.426, "MEAN_ANOMALY": 262.706, "EPHEMERIS_TYPE": 0, "CLASSIFICATION_TYPE": "U", "NORAD_CAT_ID": 60989, "ELEMENT_SET_NO": 999, "REV_AT_EPOCH": 6635, "BSTAR": 0.00010118112, "MEAN_MOTION_DOT": 2.22e-06, "MEAN_MOTION_DDOT": 0}, "tle": {"line1": "1 60989U 24157A   25346.94886838  .00000222  00000+0  10118-3 0  9994", "line2": "2 60989  98.5683  59.4284 0001198  97.4260 262.7060 14.30817628 66355"}}, "geometry": {"type": "Point", "coordinates": [60.54097818566576, -4.63267222648722]}}, {"type": "Feature", "properties": {"norad_id": 61735, "name": "IONOSFERA-M 1", "group": "resource", "lat": -62.278173647686074, "lon": 20.188109574427518, "alt_km": 823.8308445289031, "timestamp": "2025-12-13T08:49:15.351518+00:00", "meta": {"OBJECT_NAME": "IONOSFERA-M 1", "OBJECT_ID": "2024-199A", "EPOCH": "2025-12-13T00:55:41.458656", "MEAN_MOTION": 14.22714146, "ECCENTRICITY": 9.458e-05, "INCLINATION": 98.7403, "RA_OF_ASC_NODE": 216.8846, "ARG_OF_PERICENTER": 21.1906, "MEAN_ANOMALY": 338.9311, "EPHEMERIS_TYPE": 0, "CLASSIFICATION_TYPE": "U", "NORAD_CAT_ID": 61735, "ELEMENT_SET_NO": 999, "REV_AT_EPOCH": 10123, "BSTAR": 6.5257115e-05, "MEAN_MOTION_DOT": 1.02e-06, "MEAN_MOTION_DDOT": 0}, "tle": {"line1": "1 61735U 24199A   25347.03867429  .00000102  00000+0  65257-4 0  9998", "line2": "2 61735  98.7403 216.8846 0000945  21.1906 338.9311 14.22714146101234"}}, "geometry": {"type": "Point", "coordinates": [20.188109574427518, -62.278173647686074]}}, {"type": "Feature", "properties": {"norad_id": 61736, "name": "IONOSFERA-M 2", "group": "resource", "lat": 64.68677597594728, "lon": -161.85756959660947, "alt_km": 808.9651920996939, "timestamp": "2025-12-13T08:49:15.351528+00:00", "meta": {"OBJECT_NAME": "IONOSFERA-M 2", "OBJECT_ID": "2024-199B", "EPOCH": "2025-12-13T00:04:18.546816", "MEAN_MOTION": 14.22716286, "ECCENTRICITY": 0.00016566, "INCLINATION": 98.7402, "RA_OF_ASC_NODE": 216.7617, "ARG_OF_PERICENTER": 110.1801, "MEAN_ANOMALY": 249.9556, "EPHEMERIS_TYPE": 0, "CLASSIFICATION_TYPE": "U", "NORAD_CAT_ID": 61736, "ELEMENT_SET_NO": 999, "REV_AT_EPOCH": 10435, "BSTAR": 6.8074219e-05, "MEAN_MOTION_DOT": 1.08e-06, "MEAN_MOTION_DDOT": 0}, "tle": {"line1": "1 61736U 24199B   25347.00299244  .00000108  00000+0  68074-4 0  9996", "line2": "2 61736  98.7402 216.7617 0001656 110.1801 249.9556 14.22716286104357"}}, "geometry": {"type": "Point", "coordinates": [-161.85756959660947, 64.68677597594728]}}, {"type": "Feature", "properties": {"norad_id": 63772, "name": "BIOMASS", "group": "resource", "lat": -0.5185581428222897, "lon": 172.4415424020845, "alt_km": 671.8190626207397, "timestamp": "2025-12-13T08:49:15.351538+00:00", "meta": {"OBJECT_NAME": "BIOMASS", "OBJECT_ID": "2025-090A", "EPOCH": "2025-12-12T23:00:18.348480", "MEAN_MOTION": 14.67540613, "ECCENTRICITY": 0.00011673, "INCLINATION": 98.0699, "RA_OF_ASC_NODE": 171.9651, "ARG_OF_PERICENTER": 78.78, "MEAN_ANOMALY": 281.3536, "EPHEMERIS_TYPE": 0, "CLASSIFICATION_TYPE": "U", "NORAD_CAT_ID": 63772, "ELEMENT_SET_NO": 999, "REV_AT_EPOCH": 3337, "BSTAR": 0.00036403986, "MEAN_MOTION_DOT": 2.017e-05, "MEAN_MOTION_DDOT": 0}, "tle": {"line1": "1 63772U 25090A   25346.95854570  .00002017  00000+0  36404-3 0  9993", "line2": "2 63772  98.0699 171.9651 0001167  78.7800 281.3536 14.67540613 33374"}}, "geometry": {"type": "Point", "coordinates": [172.4415424020845, -0.5185581428222897]}}, {"type": "Feature", "properties": {"norad_id": 64694, "name": "GOSAT-GW (IBUKI GW)", "group": "resource", "lat": -28.976812738491, "lon": 98.37811370449842, "alt_km": 675.35894150678, "timestamp": "2025-12-13T08:49:15.351548+00:00", "meta": {"OBJECT_NAME": "GOSAT-GW (IBUKI GW)", "OBJECT_ID": "2025-141A", "EPOCH": "2025-12-13T01:19:31.415808", "MEAN_MOTION": 14.67558546, "ECCENTRICITY": 0.00014527, "INCLINATION": 98.0426, "RA_OF_ASC_NODE": 282.5624, "ARG_OF_PERICENTER": 84.5408, "MEAN_ANOMALY": 275.5963, "EPHEMERIS_TYPE": 0, "CLASSIFICATION_TYPE": "U", "NORAD_CAT_ID": 64694, "ELEMENT_SET_NO": 999, "REV_AT_EPOCH": 2454, "BSTAR": 0.00030836775, "MEAN_MOTION_DOT": 1.702e-05, "MEAN_MOTION_DDOT": 0}, "tle": {"line1": "1 64694U 25141A   25347.05522472  .00001702  00000+0  30837-3 0  9993", "line2": "2 64694  98.0426 282.5624 0001452  84.5408 275.5963 14.67558546 24543"}}, "geometry": {"type": "Point", "coordinates": [98.37811370449842, -28.976812738491]}}, {"type": "Feature", "properties": {"norad_id": 64876, "name": "IONOSFERA-M 3", "group": "resource", "lat": 70.45368747315305, "lon": 154.37636262467282, "alt_km": 812.5960324356047, "timestamp": "2025-12-13T08:49:15.351559+00:00", "meta": {"OBJECT_NAME": "IONOSFERA-M 3", "OBJECT_ID": "2025-155A", "EPOCH": "2025-12-12T23:52:11.426880", "MEAN_MOTION": 14.21441113, "ECCENTRICITY": 0.00022154, "INCLINATION": 98.5782, "RA_OF_ASC_NODE": 308.8534, "ARG_OF_PERICENTER": 59.5936, "MEAN_ANOMALY": 300.5461, "EPHEMERIS_TYPE": 0, "CLASSIFICATION_TYPE": "U", "NORAD_CAT_ID": 64876, "ELEMENT_SET_NO": 999, "REV_AT_EPOCH": 1995, "BSTAR": 8.6564275e-05, "MEAN_MOTION_DOT": 1.47e-06, "MEAN_MOTION_DDOT": 0}, "tle": {"line1": "1 64876U 25155A   25346.99457670  .00000147  00000+0  86564-4 0  9990", "line2": "2 64876  98.5782 308.8534 0002215  59.5936 300.5461 14.21441113 19955"}}, "geometry": {"type": "Point", "coordinates": [154.37636262467282, 70.45368747315305]}}, {"type": "Feature", "properties": {"norad_id": 64877, "name": "IONOSFERA-M 4", "group": "resource", "lat": -69.95647125129462, "lon": -26.425013039798483, "alt_km": 828.5212374962048, "timestamp": "2025-12-13T08:49:15.351569+00:00", "meta": {"OBJECT_NAME": "IONOSFERA-M 4", "OBJECT_ID": "2025-155B", "EPOCH": "2025-12-12T23:01:19.339104", "MEAN_MOTION": 14.21442257, "ECCENTRICITY": 0.0001576, "INCLINATION": 98.5782, "RA_OF_ASC_NODE": 308.7387, "ARG_OF_PERICENTER": 63.2499, "MEAN_ANOMALY": 296.884, "EPHEMERIS_TYPE": 0, "CLASSIFICATION_TYPE": "U", "NORAD_CAT_ID": 64877, "ELEMENT_SET_NO": 999, "REV_AT_EPOCH": 1994, "BSTAR": 8.8269588e-05, "MEAN_MOTION_DOT": 1.5e-06, "MEAN_MOTION_DDOT": 0}, "tle": {"line1": "1 64877U 25155B   25346.95925161  .00000150  00000+0  88270-4 0  9992", "line2": "2 64877  98.5782 308.7387 0001576  63.2499 296.8840 14.21442257 19943"}}, "geometry": {"type": "Point", "coordinates": [-26.425013039798483, -69.95647125129462]}}, {"type": "Feature", "properties": {"norad_id": 64899, "name": "MICROCARB", "group": "resource", "lat": -17.11732806552199, "lon": -119.78023468377704, "alt_km": 652.4074589540351, "timestamp": "2025-12-13T08:49:15.351579+00:00", "meta": {"OBJECT_NAME": "MICROCARB", "OBJECT_ID": "2025-156A", "EPOCH": "2025-12-12T22:08:27.986496", "MEAN_MOTION": 14.72057533, "ECCENTRICITY": 0.00171617, "INCLINATION": 98.0026, "RA_OF_ASC_NODE": 62.2651, "ARG_OF_PERICENTER": 144.1638, "MEAN_ANOMALY": 216.0725, "EPHEMERIS_TYPE": 0, "CLASSIFICATION_TYPE": "U", "NORAD_CAT_ID": 64899, "ELEMENT_SET_NO": 999, "REV_AT_EPOCH": 2056, "BSTAR": 0.00018853799, "MEAN_MOTION_DOT": 1.138e-05, "MEAN_MOTION_DDOT": 0}, "tle": {"line1": "1 64899U 25156A   25346.92254614  .00001138  00000+0  18854-3 0  9999", "line2": "2 64899  98.0026  62.2651 0017161 144.1638 216.0725 14.72057533 20561"}}, "geometry": {"type": "Point", "coordinates": [-119.78023468377704, -17.11732806552199]}}, {"type": "Feature", "properties": {"norad_id": 64900, "name": "CO3D 3", "group": "resource", "lat": -12.859478917019443, "lon": 65.43988344259023, "alt_km": 513.439038651416, "timestamp": "2025-12-13T08:49:15.351589+00:00", "meta": {"OBJECT_NAME": "CO3D 3", "OBJECT_ID": "2025-156B", "EPOCH": "2025-12-12T04:26:31.994592", "MEAN_MOTION": 15.20160723, "ECCENTRICITY": 0.00054722, "INCLINATION": 97.4437, "RA_OF_ASC_NODE": 62.5626, "ARG_OF_PERICENTER": 185.32, "MEAN_ANOMALY": 174.7978, "EPHEMERIS_TYPE": 0, "CLASSIFICATION_TYPE": "U", "NORAD_CAT_ID": 64900, "ELEMENT_SET_NO": 999, "REV_AT_EPOCH": 2112, "BSTAR": 0.0011050076, "MEAN_MOTION_DOT": 0.0002391, "MEAN_MOTION_DDOT": 0}, "tle": {"line1": "1 64900U 25156B   25346.18509253  .00023910  00000+0  11050-2 0  9994", "line2": "2 64900  97.4437  62.5626 0005472 185.3200 174.7978 15.20160723 21125"}}, "geometry": {"type": "Point", "coordinates": [65.43988344259023, -12.859478917019443]}}]}